{"type": "FeatureCollection", "features": [ {"type": "Feature", "properties": {"norad_id": 39122, "name": "EUTELSAT 117 WEST A", "group": "eutelsat", "lat": -0.02897939928227936, "lon": -77.4083581862105, "alt_km": 35773.4360800065, "timestamp": "2025-12-20T20:38:44.115214+00:00", "meta": {"OBJECT_NAME": "EUTELSAT 117 WEST A", "OBJECT_ID": "2013-012A", "EPOCH": "2025-12-20T10:15:38.712960", "MEAN_MOTION": 1.00274588, "ECCENTRICITY": 0.00028226, "INCLINATION": 0.0305, "RA_OF_ASC_NODE": 302.0312, "ARG_OF_PERICENTER": 332.7573, "MEAN_ANOMALY": 211.6045, "EPHEMERIS_TYPE": 0, "CLASSIFICATION_TYPE": "U", "NORAD_CAT_ID": 39122, "ELEMENT_SET_NO": 999, "REV_AT_EPOCH": 4664, "BSTAR": 0, "MEAN_MOTION_DOT": 1e-07, "MEAN_MOTION_DDOT": 0}, "tle": {"line1": "1 39122U 13012A   25354.42753140  .00000010  00000+0  00000+0 0  9998", "line2": "2 39122   0.0305 302.0312 0002822 332.7573 211.6045  1.00274588 46646"}}, "geometry": {"type": "Point", "coordinates": [-77.4083581862105, -0.02897939928227936]}}, {"type": "Feature", "properties": {"norad_id": 39163, "name": "EUTELSAT 7B", "group": "eutelsat", "lat": 0.06854726584594467, "lon": 46.40912080049123, "alt_km": 35784.44539507774, "timestamp": "2025-12-20T20:38:44.115226+00:00", "meta": {"OBJECT_NAME": "EUTELSAT 7B", "OBJECT_ID": "2013-022A", "EPOCH": "2025-12-20T06:24:55.272960", "MEAN_MOTION": 1.00270737, "ECCENTRICITY": 0.0004381, "INCLINATION": 0.0652, "RA_OF_ASC_NODE": 359.0101, "ARG_OF_PERICENTER": 323.4978, "MEAN_ANOMALY": 229.8249, "EPHEMERIS_TYPE": 0, "CLASSIFICATION_TYPE": "U", "NORAD_CAT_ID": 39163, "ELEMENT_SET_NO": 999, "REV_AT_EPOCH": 4615, "BSTAR": 0, "MEAN_MOTION_DOT": 7.2e-07, "MEAN_MOTION_DDOT": 0}, "tle": {"line1": "1 39163U 13022A   25354.26730640  .00000072  00000+0  00000+0 0  9994", "line2": "2 39163   0.0652 359.0101 0004381 323.4978 229.8249  1.00270737 46157"}}, "geometry": {"type": "Point", "coordinates": [46.40912080049123, 0.06854726584594467]}}, {"type": "Feature", "properties": {"norad_id": 39612, "name": "EXPRESS-AT1", "group": "eutelsat", "lat": 0.035741853349273, "lon": 95.35464550117862, "alt_km": 35782.826008943644, "timestamp": "2025-12-20T20:38:44.115238+00:00", "meta": {"OBJECT_NAME": "EXPRESS-AT1", "OBJECT_ID": "2014-010A", "EPOCH": "2025-12-20T16:55:13.052352", "MEAN_MOTION": 1.00274267, "ECCENTRICITY": 8.84e-05, "INCLINATION": 0.0178, "RA_OF_ASC_NODE": 323.8869, "ARG_OF_PERICENTER": 178.6158, "MEAN_ANOMALY": 256.8348, "EPHEMERIS_TYPE": 0, "CLASSIFICATION_TYPE": "U", "NORAD_CAT_ID": 39612, "ELEMENT_SET_NO": 999, "REV_AT_EPOCH": 4302, "BSTAR": 0, "MEAN_MOTION_DOT": 1.02e-06, "MEAN_MOTION_DDOT": 0}, "tle": {"line1": "1 39612U 14010A   25354.70501218  .00000102  00000+0  00000+0 0  9991", "line2": "2 39612   0.0178 323.8869 0000884 178.6158 256.8348  1.00274267 43028"}}, "geometry": {"type": "Point", "coordinates": [95.35464550117862, 0.035741853349273]}}, {"type": "Feature", "properties": {"norad_id": 39613, "name": "EXPRESS-AT2", "group": "eutelsat", "lat": -0.014297660530323001, "lon": 179.2072464241533, "alt_km": 35787.84519573429, "timestamp": "2025-12-20T20:38:44.115250+00:00", "meta": {"OBJECT_NAME": "EXPRESS-AT2", "OBJECT_ID": "2014-010B", "EPOCH": "2025-12-20T14:07:41.615040", "MEAN_MOTION": 1.00271282, "ECCENTRICITY": 0.00010295, "INCLINATION": 0.0178, "RA_OF_ASC_NODE": 326.0495, "ARG_OF_PERICENTER": 324.7522, "MEAN_ANOMALY": 150.3983, "EPHEMERIS_TYPE": 0, "CLASSIFICATION_TYPE": "U", "NORAD_CAT_ID": 39613, "ELEMENT_SET_NO": 999, "REV_AT_EPOCH": 4271, "BSTAR": 0, "MEAN_MOTION_DOT": -2.58e-06, "MEAN_MOTION_DDOT": 0}, "tle": {"line1": "1 39613U 14010B   25354.58867610 -.00000258  00000+0  00000+0 0  9992", "line2": "2 39613   0.0178 326.0495 0001029 324.7522 150.3983  1.00271282 42712"}}, "geometry": {"type": "Point", "coordinates": [179.2072464241533, -0.014297660530323001]}}, {"type": "Feature", "properties": {"norad_id": 39773, "name": "EUTELSAT 3B", "group": "eutelsat", "lat": 0.05480796915864977, "lon": 42.46664394746332, "alt_km": 35803.12020973357, "timestamp": "2025-12-20T20:38:44.115262+00:00", "meta": {"OBJECT_NAME": "EUTELSAT 3B", "OBJECT_ID": "2014-030A", "EPOCH": "2025-12-20T06:23:47.880096", "MEAN_MOTION": 1.0027252, "ECCENTRICITY": 0.00041648, "INCLINATION": 0.0609, "RA_OF_ASC_NODE": 6.0714, "ARG_OF_PERICENTER": 226.7459, "MEAN_ANOMALY": 315.3284, "EPHEMERIS_TYPE": 0, "CLASSIFICATION_TYPE": "U", "NORAD_CAT_ID": 39773, "ELEMENT_SET_NO": 999, "REV_AT_EPOCH": 4227, "BSTAR": 0, "MEAN_MOTION_DOT": 4.4e-07, "MEAN_MOTION_DDOT": 0}, "tle": {"line1": "1 39773U 14030A   25354.26652639  .00000044  00000+0  00000+0 0  9991", "line2": "2 39773   0.0609   6.0714 0004164 226.7459 315.3284  1.00272520 42274"}}, "geometry": {"type": "Point", "coordinates": [42.46664394746332, 0.05480796915864977]}}, {"type": "Feature", "properties": {"norad_id": 40425, "name": "EUTELSAT 115 WEST B", "group": "eutelsat", "lat": 0.010959273302010446, "lon": -75.50648372138696, "alt_km": 35779.624025925936, "timestamp": "2025-12-20T20:38:44.115274+00:00", "meta": {"OBJECT_NAME": "EUTELSAT 115 WEST B", "OBJECT_ID": "2015-010B", "EPOCH": "2025-12-20T10:15:38.712960", "MEAN_MOTION": 1.00282263, "ECCENTRICITY": 8.594e-05, "INCLINATION": 0.012, "RA_OF_ASC_NODE": 150.9289, "ARG_OF_PERICENTER": 117.9576, "MEAN_ANOMALY": 219.3981, "EPHEMERIS_TYPE": 0, "CLASSIFICATION_TYPE": "U", "NORAD_CAT_ID": 40425, "ELEMENT_SET_NO": 999, "REV_AT_EPOCH": 3960, "BSTAR": 0, "MEAN_MOTION_DOT": -3e-08, "MEAN_MOTION_DDOT": 0}, "tle": {"line1": "1 40425U 15010B   25354.42753140 -.00000003  00000+0  00000+0 0  9999", "line2": "2 40425   0.0120 150.9289 0000859 117.9576 219.3981  1.00282263 39607"}}, "geometry": {"type": "Point", "coordinates": [-75.50648372138696, 0.010959273302010446]}}, {"type": "Feature", "properties": {"norad_id": 40875, "name": "EUTELSAT 8 WEST B", "group": "eutelsat", "lat": 0.050385971538771404, "lon": 31.409230424140656, "alt_km": 35795.737374996315, "timestamp": "2025-12-20T20:38:44.115286+00:00", "meta": {"OBJECT_NAME": "EUTELSAT 8 WEST B", "OBJECT_ID": "2015-039B", "EPOCH": "2025-12-20T06:20:40.678944", "MEAN_MOTION": 1.00271049, "ECCENTRICITY": 0.00042772, "INCLINATION": 0.0633, "RA_OF_ASC_NODE": 357.6804, "ARG_OF_PERICENTER": 272.2572, "MEAN_ANOMALY": 266.3389, "EPHEMERIS_TYPE": 0, "CLASSIFICATION_TYPE": "U", "NORAD_CAT_ID": 40875, "ELEMENT_SET_NO": 999, "REV_AT_EPOCH": 3786, "BSTAR": 0, "MEAN_MOTION_DOT": -4.2e-07, "MEAN_MOTION_DDOT": 0}, "tle": {"line1": "1 40875U 15039B   25354.26435971 -.00000042  00000+0  00000+0 0  9993", "line2": "2 40875   0.0633 357.6804 0004277 272.2572 266.3389  1.00271049 37863"}}, "geometry": {"type": "Point", "coordinates": [31.409230424140656, 0.050385971538771404]}}, {"type": "Feature", "properties": {"norad_id": 41310, "name": "EUTELSAT 9B", "group": "eutelsat", "lat": -0.0055881863327548265, "lon": 48.39582315934385, "alt_km": 35798.76742997301, "timestamp": "2025-12-20T20:38:44.115298+00:00", "meta": {"OBJECT_NAME": "EUTELSAT 9B", "OBJECT_ID": "2016-005A", "EPOCH": "2025-12-20T06:25:32.712672", "MEAN_MOTION": 1.00272606, "ECCENTRICITY": 0.00044657, "INCLINATION": 0.0619, "RA_OF_ASC_NODE": 71.3783, "ARG_OF_PERICENTER": 203.8271, "MEAN_ANOMALY": 279.2785, "EPHEMERIS_TYPE": 0, "CLASSIFICATION_TYPE": "U", "NORAD_CAT_ID": 41310, "ELEMENT_SET_NO": 999, "REV_AT_EPOCH": 3632, "BSTAR": 0, "MEAN_MOTION_DOT": 8.6e-07, "MEAN_MOTION_DDOT": 0}, "tle": {"line1": "1 41310U 16005A   25354.26773973  .00000086  00000+0  00000+0 0  9996", "line2": "2 41310   0.0619  71.3783 0004465 203.8271 279.2785  1.00272606 36326"}}, "geometry": {"type": "Point", "coordinates": [48.39582315934385, -0.0055881863327548265]}}, {"type": "Feature", "properties": {"norad_id": 41382, "name": "EUTELSAT 65 WEST A", "group": "eutelsat", "lat": -0.006573011893160519, "lon": -25.816504049304356, "alt_km": 35781.239426959946, "timestamp": "2025-12-20T20:38:44.115309+00:00", "meta": {"OBJECT_NAME": "EUTELSAT 65 WEST A", "OBJECT_ID": "2016-014A", "EPOCH": "2025-12-20T12:11:56.059872", "MEAN_MOTION": 1.00274098, "ECCENTRICITY": 0.00021262, "INCLINATION": 0.0531, "RA_OF_ASC_NODE": 332.5457, "ARG_OF_PERICENTER": 299.6885, "MEAN_ANOMALY": 294.8871, "EPHEMERIS_TYPE": 0, "CLASSIFICATION_TYPE": "U", "NORAD_CAT_ID": 41382, "ELEMENT_SET_NO": 999, "REV_AT_EPOCH": 3574, "BSTAR": 0, "MEAN_MOTION_DOT": -2.53e-06, "MEAN_MOTION_DDOT": 0}, "tle": {"line1": "1 41382U 16014A   25354.50828773 -.00000253  00000+0  00000+0 0  9998", "line2": "2 41382   0.0531 332.5457 0002126 299.6885 294.8871  1.00274098 35745"}}, "geometry": {"type": "Point", "coordinates": [-25.816504049304356, -0.006573011893160519]}}, {"type": "Feature", "properties": {"norad_id": 41589, "name": "EUTELSAT 117 WEST B", "group": "eutelsat", "lat": 0.009990330739781426, "lon": -77.60744612274658, "alt_km": 35782.06838625486, "timestamp": "2025-12-20T20:38:44.115321+00:00", "meta": {"OBJECT_NAME": "EUTELSAT 117 WEST B", "OBJECT_ID": "2016-038B", "EPOCH": "2025-12-20T10:15:38.712960", "MEAN_MOTION": 1.0027683, "ECCENTRICITY": 6.122e-05, "INCLINATION": 0.0138, "RA_OF_ASC_NODE": 152.9608, "ARG_OF_PERICENTER": 124.2056, "MEAN_ANOMALY": 209.0277, "EPHEMERIS_TYPE": 0, "CLASSIFICATION_TYPE": "U", "NORAD_CAT_ID": 41589, "ELEMENT_SET_NO": 999, "REV_AT_EPOCH": 3487, "BSTAR": 0, "MEAN_MOTION_DOT": 1.1e-07, "MEAN_MOTION_DDOT": 0}, "tle": {"line1": "1 41589U 16038B   25354.42753140  .00000011  00000+0  00000+0 0  9990", "line2": "2 41589   0.0138 152.9608 0000612 124.2056 209.0277  1.00276830 34877"}}, "geometry": {"type": "Point", "coordinates": [-77.60744612274658, 0.009990330739781426]}}]}